[{"OBJECT_NAME":"ONEWEB-0058","OBJECT_ID":"2020-008AG","EPOCH":"2025-07-31T14:03:10.230912","MEAN_MOTION":13.10376123,"ECCENTRICITY":0.0001935,"INCLINATION":87.88,"RA_OF_ASC_NODE":100.2325,"ARG_OF_PERICENTER":74.8421,"MEAN_ANOMALY":285.292,"EPHEMERIS_TYPE":0,"CLASSIFICATION_TYPE":"U","NORAD_CAT_ID":45161,"ELEMENT_SET_NO":999,"REV_AT_EPOCH":26643,"BSTAR":0.0002607,"MEAN_MOTION_DOT":1.04e-6,"MEAN_MOTION_DDOT":0},{"OBJECT_NAME":"ONEWEB-0059","OBJECT_ID":"2020-008AH","EPOCH":"2025-07-31T10:18:16.317792","MEAN_MOTION":13.10376447,"ECCENTRICITY":0.0001899,"INCLINATION":87.8805,"RA_OF_ASC_NODE":100.2626,"ARG_OF_PERICENTER":74.3529,"MEAN_ANOMALY":285.7808,"EPHEMERIS_TYPE":0,"CLASSIFICATION_TYPE":"U","NORAD_CAT_ID":45162,"ELEMENT_SET_NO":999,"REV_AT_EPOCH":26631,"BSTAR":-0.00022728,"MEAN_MOTION_DOT":-6.7e-7,"MEAN_MOTION_DDOT":0},{"OBJECT_NAME":"ONEWEB-0062","OBJECT_ID":"2020-008AJ","EPOCH":"2025-07-31T14:35:15.025920","MEAN_MOTION":13.10371267,"ECCENTRICITY":0.0001726,"INCLINATION":87.8795,"RA_OF_ASC_NODE":100.2064,"ARG_OF_PERICENTER":66.0657,"MEAN_ANOMALY":294.0651,"EPHEMERIS_TYPE":0,"CLASSIFICATION_TYPE":"U","NORAD_CAT_ID":45163,"ELEMENT_SET_NO":999,"REV_AT_EPOCH":26620,"BSTAR":0.0015571,"MEAN_MOTION_DOT":5.56e-6,"MEAN_MOTION_DDOT":0},{"OBJECT_NAME":"ONEWEB-0065","OBJECT_ID":"2020-008AK","EPOCH":"2025-07-31T14:05:27.856608","MEAN_MOTION":13.10377021,"ECCENTRICITY":0.0001612,"INCLINATION":87.8806,"RA_OF_ASC_NODE":100.2348,"ARG_OF_PERICENTER":88.2972,"MEAN_ANOMALY":271.834,"EPHEMERIS_TYPE":0,"CLASSIFICATION_TYPE":"U","NORAD_CAT_ID":45164,"ELEMENT_SET_NO":999,"REV_AT_EPOCH":26589,"BSTAR":0.00076206,"MEAN_MOTION_DOT":2.79e-6,"MEAN_MOTION_DDOT":0},{"OBJECT_NAME":"ONEWEB-0066","OBJECT_ID":"2020-020A","EPOCH":"2025-07-31T16:48:23.418720","MEAN_MOTION":13.11419543,"ECCENTRICITY":0.0001999,"INCLINATION":87.8811,"RA_OF_ASC_NODE":84.9373,"ARG_OF_PERICENTER":83.9325,"MEAN_ANOMALY":276.203,"EPHEMERIS_TYPE":0,"CLASSIFICATION_TYPE":"U","NORAD_CAT_ID":45424,"ELEMENT_SET_NO":999,"REV_AT_EPOCH":26068,"BSTAR":0.0006642,"MEAN_MOTION_DOT":2.48e-6,"MEAN_MOTION_DDOT":0},{"OBJECT_NAME":"ONEWEB-0067","OBJECT_ID":"2020-020B","EPOCH":"2025-07-31T14:02:32.044704","MEAN_MOTION":13.11415648,"ECCENTRICITY":0.0001917,"INCLINATION":87.8799,"RA_OF_ASC_NODE":84.8712,"ARG_OF_PERICENTER":84.6571,"MEAN_ANOMALY":275.4775,"EPHEMERIS_TYPE":0,"CLASSIFICATION_TYPE":"U","NORAD_CAT_ID":45425,"ELEMENT_SET_NO":999,"REV_AT_EPOCH":26071,"BSTAR":-0.00094368,"MEAN_MOTION_DOT":-3.22e-6,"MEAN_MOTION_DDOT":0},{"OBJECT_NAME":"ONEWEB-0080","OBJECT_ID":"2020-020C","EPOCH":"2025-07-31T14:15:45.826560","MEAN_MOTION":13.11415711,"ECCENTRICITY":0.0002046,"INCLINATION":87.8815,"RA_OF_ASC_NODE":84.9589,"ARG_OF_PERICENTER":72.9704,"MEAN_ANOMALY":287.1648,"EPHEMERIS_TYPE":0,"CLASSIFICATION_TYPE":"U","NORAD_CAT_ID":45426,"ELEMENT_SET_NO":999,"REV_AT_EPOCH":26068,"BSTAR":-0.0017706,"MEAN_MOTION_DOT":-6.15e-6,"MEAN_MOTION_DDOT":0},{"OBJECT_NAME":"ONEWEB-0090","OBJECT_ID":"2020-020D","EPOCH":"2025-07-31T14:43:50.858112","MEAN_MOTION":13.11418377,"ECCENTRICITY":0.0001749,"INCLINATION":87.881,"RA_OF_ASC_NODE":84.9567,"ARG_OF_PERICENTER":78.1138,"MEAN_ANOMALY":282.0186,"EPHEMERIS_TYPE":0,"CLASSIFICATION_TYPE":"U","NORAD_CAT_ID":45427,"ELEMENT_SET_NO":999,"REV_AT_EPOCH":26065,"BSTAR":-0.00031773,"MEAN_MOTION_DOT":-1.0e-6,"MEAN_MOTION_DDOT":0},{"OBJECT_NAME":"ONEWEB-0061","OBJECT_ID":"2020-020E","EPOCH":"2025-07-31T13:40:10.813440","MEAN_MOTION":13.11414936,"ECCENTRICITY":0.0001833,"INCLINATION":87.881,"RA_OF_ASC_NODE":84.947,"ARG_OF_PERICENTER":79.68,"MEAN_ANOMALY":280.4535,"EPHEMERIS_TYPE":0,"CLASSIFICATION_TYPE":"U","NORAD_CAT_ID":45428,"ELEMENT_SET_NO":999,"REV_AT_EPOCH":26060,"BSTAR":0.00094756,"MEAN_MOTION_DOT":3.49e-6,"MEAN_MOTION_DDOT":0},{"OBJECT_NAME":"ONEWEB-0081","OBJECT_ID":"2020-020F","EPOCH":"2025-07-31T15:03:24.871680","MEAN_MOTION":13.11418232,"ECCENTRICITY":0.0001962,"INCLINATION":87.8806,"RA_OF_ASC_NODE":84.9556,"ARG_OF_PERICENTER":83.775,"MEAN_ANOMALY":276.3601,"EPHEMERIS_TYPE":0,"CLASSIFICATION_TYPE":"U","NORAD_CAT_ID":45429,"ELEMENT_SET_NO":999,"REV_AT_EPOCH":26072,"BSTAR":0.0010904,"MEAN_MOTION_DOT":3.99e-6,"MEAN_MOTION_DDOT":0},{"OBJECT_NAME":"ONEWEB-0069","OBJECT_ID":"2020-020G","EPOCH":"2025-07-31T16:37:22.372320","MEAN_MOTION":13.11419658,"ECCENTRICITY":0.0001796,"INCLINATION":87.8813,"RA_OF_ASC_NODE":84.9349,"ARG_OF_PERICENTER":83.0021,"MEAN_ANOMALY":277.1311,"EPHEMERIS_TYPE":0,"CLASSIFICATION_TYPE":"U","NORAD_CAT_ID":45430,"ELEMENT_SET_NO":999,"REV_AT_EPOCH":26067,"BSTAR":-0.00014628,"MEAN_MOTION_DOT":-3.9e-7,"MEAN_MOTION_DDOT":0},{"OBJECT_NAME":"ONEWEB-0031","OBJECT_ID":"2020-020H","EPOCH":"2025-07-31T14:07:13.227456","MEAN_MOTION":13.11416023,"ECCENTRICITY":0.0001727,"INCLINATION":87.881,"RA_OF_ASC_NODE":84.9858,"ARG_OF_PERICENTER":72.952,"MEAN_ANOMALY":287.1797,"EPHEMERIS_TYPE":0,"CLASSIFICATION_TYPE":"U","NORAD_CAT_ID":45431,"ELEMENT_SET_NO":999,"REV_AT_EPOCH":26063,"BSTAR":-0.001234,"MEAN_MOTION_DOT":-4.25e-6,"MEAN_MOTION_DDOT":0},{"OBJECT_NAME":"ONEWEB-0027","OBJECT_ID":"2020-020J","EPOCH":"2025-07-31T15:03:43.739712","MEAN_MOTION":13.17731141,"ECCENTRICITY":0.0001822,"INCLINATION":87.9027,"RA_OF_ASC_NODE":69.64,"ARG_OF_PERICENTER":78.4334,"MEAN_ANOMALY":281.7002,"EPHEMERIS_TYPE":0,"CLASSIFICATION_TYPE":"U","NORAD_CAT_ID":45432,"ELEMENT_SET_NO":999,"REV_AT_EPOCH":26414,"BSTAR":-3.6103e-5,"MEAN_MOTION_DOT":-1.0e-8,"MEAN_MOTION_DDOT":0},{"OBJECT_NAME":"ONEWEB-0064","OBJECT_ID":"2020-020K","EPOCH":"2025-07-31T14:04:46.615296","MEAN_MOTION":13.11416157,"ECCENTRICITY":0.0001667,"INCLINATION":87.8806,"RA_OF_ASC_NODE":84.9779,"ARG_OF_PERICENTER":75.4905,"MEAN_ANOMALY":284.6408,"EPHEMERIS_TYPE":0,"CLASSIFICATION_TYPE":"U","NORAD_CAT_ID":45433,"ELEMENT_SET_NO":999,"REV_AT_EPOCH":26066,"BSTAR":-0.0010614,"MEAN_MOTION_DOT":-3.63e-6,"MEAN_MOTION_DDOT":0},{"OBJECT_NAME":"ONEWEB-0018","OBJECT_ID":"2020-020L","EPOCH":"2025-07-31T14:51:10.744704","MEAN_MOTION":13.1141925,"ECCENTRICITY":0.0001817,"INCLINATION":87.8809,"RA_OF_ASC_NODE":84.9558,"ARG_OF_PERICENTER":79.3849,"MEAN_ANOMALY":280.7483,"EPHEMERIS_TYPE":0,"CLASSIFICATION_TYPE":"U","NORAD_CAT_ID":45434,"ELEMENT_SET_NO":999,"REV_AT_EPOCH":26061,"BSTAR":0.00020454,"MEAN_MOTION_DOT":8.5e-7,"MEAN_MOTION_DDOT":0},{"OBJECT_NAME":"ONEWEB-0083","OBJECT_ID":"2020-020M","EPOCH":"2025-07-31T14:36:31.006944","MEAN_MOTION":13.11418575,"ECCENTRICITY":0.0001718,"INCLINATION":87.8816,"RA_OF_ASC_NODE":84.9437,"ARG_OF_PERICENTER":78.2137,"MEAN_ANOMALY":281.9184,"EPHEMERIS_TYPE":0,"CLASSIFICATION_TYPE":"U","NORAD_CAT_ID":45435,"ELEMENT_SET_NO":999,"REV_AT_EPOCH":26065,"BSTAR":-0.00087495,"MEAN_MOTION_DOT":-2.97e-6,"MEAN_MOTION_DDOT":0},{"OBJECT_NAME":"ONEWEB-0095","OBJECT_ID":"2020-020N","EPOCH":"2025-07-31T14:24:29.103840","MEAN_MOTION":13.11419518,"ECCENTRICITY":0.0001071,"INCLINATION":87.8805,"RA_OF_ASC_NODE":84.969,"ARG_OF_PERICENTER":91.8608,"MEAN_ANOMALY":268.2643,"EPHEMERIS_TYPE":0,"CLASSIFICATION_TYPE":"U","NORAD_CAT_ID":45436,"ELEMENT_SET_NO":999,"REV_AT_EPOCH":26065,"BSTAR":-0.0014664,"MEAN_MOTION_DOT":-5.07e-6,"MEAN_MOTION_DDOT":0}]
