ONEWEB-0058             
1 45161U 20008AG  25212.58553508  .00000104  00000+0  26070-3 0  9990
2 45161  87.8800 100.2325 0001935  74.8421 285.2920 13.10376123266433
ONEWEB-0059             
1 45162U 20008AH  25212.42935553 -.00000067  00000+0 -22728-3 0  9994
2 45162  87.8805 100.2626 0001899  74.3529 285.7808 13.10376447266312
ONEWEB-0062             
1 45163U 20008AJ  25212.60781280  .00000556  00000+0  15571-2 0  9999
2 45163  87.8795 100.2064 0001726  66.0657 294.0651 13.10371267266208
ONEWEB-0065             
1 45164U 20008AK  25212.58712797  .00000279  00000+0  76206-3 0  9999
2 45164  87.8806 100.2348 0001612  88.2972 271.8340 13.10377021265893
ONEWEB-0066             
1 45424U 20020A   25212.70027105  .00000248  00000+0  66420-3 0  9991
2 45424  87.8811  84.9373 0001999  83.9325 276.2030 13.11419543260680
ONEWEB-0067             
1 45425U 20020B   25212.58509311 -.00000322  00000+0 -94368-3 0  9999
2 45425  87.8799  84.8712 0001917  84.6571 275.4775 13.11415648260716
ONEWEB-0080             
1 45426U 20020C   25212.59428040 -.00000615  00000+0 -17706-2 0  9995
2 45426  87.8815  84.9589 0002046  72.9704 287.1648 13.11415711260687
ONEWEB-0090             
1 45427U 20020D   25212.61378308 -.00000100  00000+0 -31773-3 0  9990
2 45427  87.8810  84.9567 0001749  78.1138 282.0186 13.11418377260656
ONEWEB-0061             
1 45428U 20020E   25212.56956960  .00000349  00000+0  94756-3 0  9994
2 45428  87.8810  84.9470 0001833  79.6800 280.4535 13.11414936260608
ONEWEB-0081             
1 45429U 20020F   25212.62737120  .00000399  00000+0  10904-2 0  9994
2 45429  87.8806  84.9556 0001962  83.7750 276.3601 13.11418232260726
ONEWEB-0069             
1 45430U 20020G   25212.69262005 -.00000039  00000+0 -14628-3 0  9999
2 45430  87.8813  84.9349 0001796  83.0021 277.1311 13.11419658260679
ONEWEB-0031             
1 45431U 20020H   25212.58834754 -.00000425  00000+0 -12340-2 0  9991
2 45431  87.8810  84.9858 0001727  72.9520 287.1797 13.11416023260635
ONEWEB-0027             
1 45432U 20020J   25212.62758958 -.00000001  00000+0 -36103-4 0  9993
2 45432  87.9027  69.6400 0001822  78.4334 281.7002 13.17731141264146
ONEWEB-0064             
1 45433U 20020K   25212.58665064 -.00000363  00000+0 -10614-2 0  9992
2 45433  87.8806  84.9779 0001667  75.4905 284.6408 13.11416157260664
ONEWEB-0018             
1 45434U 20020L   25212.61887436  .00000085  00000+0  20454-3 0  9999
2 45434  87.8809  84.9558 0001817  79.3849 280.7483 13.11419250260612
ONEWEB-0083             
1 45435U 20020M   25212.60869221 -.00000297  00000+0 -87495-3 0  9996
2 45435  87.8816  84.9437 0001718  78.2137 281.9184 13.11418575260659
ONEWEB-0095             
1 45436U 20020N   25212.60033685 -.00000507  00000+0 -14664-2 0  9995
2 45436  87.8805  84.9690 0001071  91.8608 268.2643 13.11419518260651
